SL-3 R/B                
1 19046U 88032B   23136.58959984  .00003773  00000+0  26001-3 0  9994
2 19046  97.4135 126.6176 0035011 179.1537 180.9756 15.05929861896705
SL-16 R/B               
1 19120U 88039B   23136.25738723  .00000071  00000+0  56628-4 0  9991
2 19120  71.0145  82.6377 0019929 120.5537 239.7558 14.19313765812447
COSMOS 1953             
1 19210U 88050A   23136.37120716  .00005593  00000+0  34207-3 0  9996
2 19210  82.5109  96.4185 0019760 102.3781 257.9661 15.09887008881748
SL-8 R/B                
1 19257U 88053B   23136.56765322  .00000258  00000+0  94277-4 0  9996
2 19257  74.0482 205.8403 0021556 281.3437 181.4671 14.37831071828775
COSMOS 1975             
1 19573U 88093A   23136.24117171  .00004262  00000+0  26693-3 0  9994
2 19573  82.5211  53.0144 0018496 147.6802 212.5564 15.08992584863417
SL-14 R/B               
1 19574U 88093B   23136.52942703  .00000638  00000+0  73722-4 0  9992
2 19574  82.5298 285.7428 0021053 192.0337 237.2862 14.83864283848472
SL-16 R/B               
1 19650U 88102B   23136.50669261  .00000296  00000+0  17464-3 0  9991
2 19650  70.9977 154.4215 0012878 143.4155 216.7850 14.15889789781345
INTERCOSMOS 24          
1 20261U 89080A   23136.25270506  .00000520  00000+0  14768-3 0  9993
2 20261  82.6100  52.1690 1199168 154.5827 211.9592 12.57039810537459
SL-14 R/B               
1 20262U 89080C   23136.45545005  .00000783  00000+0  23250-3 0  9992
2 20262  82.5895 112.9385 1235602  13.1013 349.9292 12.49347475531696
DELTA 2 R/B(1)          
1 20303U 89085B   23136.35094791  .00076935  00000+0  93334-3 0  9995
2 20303  35.6315 106.7274 0045708 355.5504   4.4822 15.58127428831905
DELTA 1 R/B             
1 20323U 89089B   23136.55891951  .00000498  00000+0  13614-3 0  9990
2 20323  97.0679 129.3366 0072527 124.3556 236.4530 14.48855390767290
ARIANE 40 R/B           
1 20443U 90005H   23136.21735548  .00000402  00000+0  14573-3 0  9995
2 20443  98.4401 204.2583 0011321  56.0366 304.1896 14.38501345744874
DELTA 2 R/B(1)          
1 20453U 90008B   23136.32270090  .00006410  00000+0  30137-3 0  9996
2 20453  35.6224  79.5868 0244204 219.5553 138.7113 14.96372821769668
COSMOS 2058             
1 20465U 90010A   23136.53382531  .00002315  00000+0  18169-3 0  9990
2 20465  82.4866 329.3257 0013805 209.1929 150.8525 15.00440049787547
SL-14 R/B               
1 20466U 90010B   23136.56096598  .00000494  00000+0  59239-4 0  9999
2 20466  82.5010 151.6763 0022023  85.1741 275.1987 14.81882843776130
SL-14 R/B               
1 20511U 90018B   23136.44312507  .00000551  00000+0  68808-4 0  9992
2 20511  82.5211 102.9207 0015986 227.4546 255.7860 14.80523599770351
HST                     
1 20580U 90037B   23136.41722814  .00003724  00000+0  19499-3 0  9998
2 20580  28.4684 119.3567 0002526  39.7491  93.2734 15.13037197616647
SL-16 R/B               
1 20625U 90046B   23136.53246246  .00000003  00000+0  26473-4 0  9999
2 20625  70.9994 296.7430 0012241  62.4774 297.7591 14.14755081702966
COSMOS 2084             
1 20663U 90055A   23136.50373195  .00003001  00000+0  24508-3 0  9999
2 20663  62.7917 214.5269 0132643  82.9364 278.6794 14.95113591782044
SL-6 R/B(2)             
1 20666U 90055D   23136.37315815  .00002619  00000+0  21949-3 0  9992
2 20666  62.7821 128.7139 0126632 104.4226 257.0961 14.95087706783991
SL-8 R/B                
1 20775U 90078B   23136.27120120  .00010489  00000+0  45993-3 0  9999
2 20775  82.9223  64.6066 0521984 121.9530 243.3526 14.47504639658521
SL-8 R/B                
1 21088U 91006B   23136.59829609  .00000084  00000+0  69506-4 0  9999
2 21088  82.9447 214.7204 0023284  37.9571  81.2608 13.77255894622541
OKEAN-3                 
1 21397U 91039A   23136.36615084  .00002878  00000+0  25813-3 0  9998
2 21397  82.5216 245.3818 0016710 204.4352 155.6080 14.95336550710895
COSMOS 2151             
1 21422U 91042A   23136.52951046  .00001485  00000+0  13744-3 0  9993
2 21422  82.4999 350.1603 0012318 281.4119  78.5718 14.93831755709382
SL-14 R/B               
1 21423U 91042B   23136.41115634  .00000596  00000+0  75162-4 0  9992
2 21423  82.4919 103.2569 0018068  21.5177 338.6791 14.80258909700874
ERS-1                   
1 21574U 91050A   23136.50475333  .00000338  00000+0  12584-3 0  9995
2 21574  98.7411 115.2269 0033073  12.5533 347.6470 14.38134671667886
ARIANE 40 R/B           
1 21610U 91050F   23136.16924996  .00000445  00000+0  15069-3 0  9992
2 21610  98.3382 203.5159 0002121 322.0105  38.0935 14.41368086670753
INTERCOSMOS 25          
1 21819U 91086A   23136.31123795  .00002976  00000+0  58643-3 0  9993
2 21819  82.6114 209.2266 1510605 165.0853 200.0450 12.06921406372361
SL-8 R/B                
1 21876U 92008B   23136.56853958  .00000045  00000+0  30195-4 0  9997
2 21876  82.9244 312.2056 0035936 124.6051 297.5020 13.75749836568040
SL-8 R/B                
1 21938U 92020B   23136.53117381  .00000056  00000+0  42320-4 0  9995
2 21938  82.9322 197.2862 0027686 288.0232 185.4532 13.75352882560092
COSMOS 2219             
1 22219U 92076A   23136.08120038 -.00000117  00000+0 -36872-4 0  9997
2 22219  71.0628   7.7719 0019720 325.5843  34.4001 14.13761087572983
SL-16 R/B               
1 22220U 92076B   23136.52461878 -.00000141  00000+0 -46391-4 0  9992
2 22220  70.9995 193.6556 0014537 228.8702 231.0249 14.16560193576211
COSMOS 2221             
1 22236U 92080A   23136.52831730  .00001541  00000+0  15817-3 0  9993
2 22236  82.5075 178.4659 0016892  36.8935 323.3441 14.89695182627394
SL-16 R/B               
1 22285U 92093B   23136.03363167  .00000211  00000+0  13296-3 0  9993
2 22285  71.0224   3.2017 0002338  68.6888 291.4484 14.15146588567610
COSMOS 2228             
1 22286U 92094A   23136.50886921  .00001752  00000+0  17836-3 0  9990
2 22286  82.5168 135.9688 0021679 143.2094 217.0617 14.90002981622592
SL-16 R/B               
1 22566U 93016B   23136.54787151  .00000164  00000+0  10896-3 0  9990
2 22566  71.0074 214.1258 0008242  88.5980 271.6087 14.15059251556717
COSMOS 2242             
1 22626U 93024A   23136.53669881  .00001635  00000+0  16738-3 0  9999
2 22626  82.5203 164.5427 0019595 143.9745 216.2799 14.89778697626973
SL-16 R/B               
1 22803U 93059B   23136.07194156  .00000282  00000+0  16400-3 0  9994
2 22803  70.9920  19.7643 0018147 331.1631  28.8488 14.16931894533817
ARIANE 40 R/B           
1 22830U 93061H   23136.19622270  .00000312  00000+0  13304-3 0  9997
2 22830  98.6176 202.5247 0012086  82.7277 277.5280 14.31766264546877
COSMOS 2278             
1 23087U 94023A   23136.54847148  .00000378  00000+0  22401-3 0  9993
2 23087  71.0513 165.4295 0008624 171.0442 189.0836 14.13953495499450
SL-16 R/B               
1 23088U 94023B   23136.27238360  .00000245  00000+0  15154-3 0  9994
2 23088  71.0009  70.2343 0001789  24.1020 336.0186 14.14766849500623
SL-16 R/B               
1 23343U 94074B   23136.11457380  .00000543  00000+0  83285-4 0  9994
2 23343  97.8423 185.9950 0005948 332.3047  84.3125 14.77431737535274
SL-16 R/B               
1 23405U 94077B   23136.01639209  .00000155  00000+0  10420-3 0  9996
2 23405  70.9834 356.1749 0004641 278.1490  81.9106 14.15306851470671
ERS-2                   
1 23560U 95021A   23136.43077986  .00036487  00000+0  91042-3 0  9998
2 23560  98.5183  95.1836 0005523 114.9162 245.2655 15.40094687504252
ARIANE 40+ R/B          
1 23561U 95021B   23136.15356499  .00000382  00000+0  13996-3 0  9994
2 23561  98.5754 198.9834 0006374 346.1685  67.9025 14.38422303471317
SL-16 R/B               
1 23705U 95058B   23136.53730863 -.00000196  00000+0 -76443-4 0  9999
2 23705  71.0207 178.3661 0014733 250.0568 109.8968 14.15230170422375
SL-16 R/B               
1 24298U 96051B   23136.58873645  .00000026  00000+0  40278-4 0  9999
2 24298  70.8278 187.9269 0018775 219.6920 140.2827 14.12514673376473
ORBVIEW 2 (SEASTAR)     
1 24883U 97037A   23136.36609177  .00000425  00000+0  16818-3 0  9992
2 24883  98.7202 266.6002 0002129 180.6847 179.4335 14.34046068361014
SL-16 R/B               
1 25400U 98043G   23136.39904668  .00000083  00000+0  53764-4 0  9994
2 25400  98.7058  74.4327 0010886 117.3874 242.8415 14.25606422292451
SL-16 R/B               
1 25407U 98045B   23136.55081282 -.00000203  00000+0 -79068-4 0  9990
2 25407  71.0101 183.2338 0006811 170.8703 189.2545 14.15911909281555
ISS (ZARYA)             
1 25544U 98067A   23136.61813858  .00012913  00000+0  23168-3 0  9993
2 25544  51.6405 125.0040 0006442 354.5246 117.9986 15.50256007396897
CZ-4B R/B               
1 25732U 99025C   23136.56202029  .00000102  00000+0  70975-4 0  9999
2 25732  98.8060 181.0860 0038216  56.0205  69.9930 14.17818863242454
OKEAN-O                 
1 25860U 99039A   23136.12243743  .00000862  00000+0  12829-3 0  9992
2 25860  98.0915 183.0668 0001896  85.2758 274.8669 14.77475373282367
SL-16 R/B               
1 25861U 99039B   23136.53575299  .00000666  00000+0  96684-4 0  9996
2 25861  98.1407 173.4579 0014981 346.4306  13.6500 14.79306419284731
DELTA 2 R/B             
1 25876U 99041E   23136.23920010  .00000709  00000+0  15781-3 0  9993
2 25876  51.7658  71.5759 0524442 206.0244 151.3434 14.06344268218027
HELIOS 1B               
1 25977U 99064A   23136.50986381  .00000734  00000+0  96637-4 0  9991
2 25977  98.2965 348.8843 0002114 120.3549 239.7872 14.83362601532643
TERRA                   
1 25994U 99068A   23136.52495860  .00000561  00000+0  12841-3 0  9995
2 25994  98.0954 205.6909 0002401 135.2389 338.0166 14.59217682245042
SL-16 R/B               
1 26070U 00006B   23136.30038607  .00000230  00000+0  14199-3 0  9994
2 26070  71.0007  99.7096 0018333 302.7719  57.1637 14.15542455203010
TITAN 4B R/B            
1 26474U 00047B   23136.11774935  .00002847  00000+0  24063-3 0  9994
2 26474  67.9958  27.4898 0048100 110.4895 250.1422 14.98732523238258
